STARLINK-1494           
1 45760U 20038AG  26068.49716211  .00096828  00000+0  67102-3 0  9999
2 45760  53.0480 152.5788 0005412   2.9213 357.1836 15.73709706317367
STARLINK-36705          
1 67712U 26025V   26068.81617355  .00311411  00000+0  20112-2 0  9994
2 67712  97.2852 180.4536 0001908  81.9088 278.2393 15.75215871  5963
