[{"OBJECT_NAME":"STARLINK-1494","OBJECT_ID":"2020-038AG","EPOCH":"2026-03-09T11:55:54.806304","MEAN_MOTION":15.73709706,"ECCENTRICITY":0.00054124,"INCLINATION":53.048,"RA_OF_ASC_NODE":152.5788,"ARG_OF_PERICENTER":2.9213,"MEAN_ANOMALY":357.1836,"EPHEMERIS_TYPE":0,"CLASSIFICATION_TYPE":"U","NORAD_CAT_ID":45760,"ELEMENT_SET_NO":999,"REV_AT_EPOCH":31736,"BSTAR":0.00067102324,"MEAN_MOTION_DOT":0.00096828,"MEAN_MOTION_DDOT":0},{"OBJECT_NAME":"STARLINK-36705","OBJECT_ID":"2026-025V","EPOCH":"2026-03-09T19:35:17.395584","MEAN_MOTION":15.75215871,"ECCENTRICITY":0.00019082,"INCLINATION":97.2852,"RA_OF_ASC_NODE":180.4536,"ARG_OF_PERICENTER":81.9088,"MEAN_ANOMALY":278.2393,"EPHEMERIS_TYPE":0,"CLASSIFICATION_TYPE":"U","NORAD_CAT_ID":67712,"ELEMENT_SET_NO":999,"REV_AT_EPOCH":596,"BSTAR":0.0020112353,"MEAN_MOTION_DOT":0.00311411,"MEAN_MOTION_DDOT":0}]
